$$SOE
2459580.500000000, A.D. 2022-Jan-01 00:00:00.0000, 2.466092856042545E+08, -3.769429633385472E+08, -7.167003513343531E+07,
2459587.500000000, A.D. 2022-Jan-08 00:00:00.0000, 2.544540740978257E+08, -3.702241513658818E+08, -7.138656735398157E+07,
2459594.500000000, A.D. 2022-Jan-15 00:00:00.0000, 2.621677571028526E+08, -3.633143357454058E+08, -7.106625212162140E+07,
2459601.500000000, A.D. 2022-Jan-22 00:00:00.0000, 2.697452497529001E+08, -3.562155356847899E+08, -7.070895232771444E+07,
2459608.500000000, A.D. 2022-Jan-29 00:00:00.0000, 2.771814592166144E+08, -3.489299065906144E+08, -7.031454907023764E+07,
2459615.500000000, A.D. 2022-Feb-05 00:00:00.0000, 2.844712861145750E+08, -3.414597436792852E+08, -6.988294220464158E+07,
2459622.500000000, A.D. 2022-Feb-12 00:00:00.0000, 2.916096283215331E+08, -3.338074866042481E+08, -6.941405118993489E+07,
2459629.500000000, A.D. 2022-Feb-19 00:00:00.0000, 2.985913858346171E+08, -3.259757227190487E+08, -6.890781591392148E+07,
2459636.500000000, A.D. 2022-Feb-26 00:00:00.0000, 3.054114654007054E+08, -3.179671896876059E+08, -6.836419743539247E+07,
2459643.500000000, A.D. 2022-Mar-05 00:00:00.0000, 3.120647850659480E+08, -3.097847780459761E+08, -6.778317870714332E+07,
2459650.500000000, A.D. 2022-Mar-12 00:00:00.0000, 3.185462788723606E+08, -3.014315337678419E+08, -6.716476530425842E+07,
2459657.500000000, A.D. 2022-Mar-19 00:00:00.0000, 3.248509017749689E+08, -2.929106607915218E+08, -6.650898616048947E+07,
2459664.500000000, A.D. 2022-Mar-26 00:00:00.0000, 3.309736348033207E+08, -2.842255234995590E+08, -6.581589431366336E+07,
2459671.500000000, A.D. 2022-Apr-02 00:00:00.0000, 3.369094905353659E+08, -2.753796491907127E+08, -6.508556766901885E+07,
2459678.500000000, A.D. 2022-Apr-09 00:00:00.0000, 3.426535191553671E+08, -2.663767305221334E+08, -6.431810980291657E+07,
2459685.500000000, A.D. 2022-Apr-16 00:00:00.0000, 3.482008154530835E+08, -2.572206272500100E+08, -6.351365078416751E+07,
2459692.500000000, A.D. 2022-Apr-23 00:00:00.0000, 3.535465254953139E+08, -2.479153661681855E+08, -6.267234780603813E+07,
2459699.500000000, A.D. 2022-Apr-30 00:00:00.0000, 3.586858510967736E+08, -2.384651414739345E+08, -6.179438563855673E+07,
2459706.500000000, A.D. 2022-May-07 00:00:00.0000, 3.636140551472393E+08, -2.288743175159868E+08, -6.087997734037594E+07,
2459713.500000000, A.D. 2022-May-14 00:00:00.0000, 3.683264691784002E+08, -2.191474308672875E+08, -5.992936510628808E+07,
2459720.500000000, A.D. 2022-May-21 00:00:00.0000, 3.728185011325989E+08, -2.092891909456030E+08, -5.894282099897733E+07,
2459727.500000000, A.D. 2022-May-28 00:00:00.0000, 3.770856428451449E+08, -1.993044801225526E+08, -5.792064759590399E+07,
2459734.500000000, A.D. 2022-Jun-04 00:00:00.0000, 3.811234775051008E+08, -1.891983536143919E+08, -5.686317859827442E+07,
2459741.500000000, A.D. 2022-Jun-11 00:00:00.0000, 3.849276872255689E+08, -1.789760391313772E+08, -5.577077941095418E+07,
2459748.500000000, A.D. 2022-Jun-18 00:00:00.0000, 3.884940607484973E+08, -1.686429362508608E+08, -5.464384769175617E+07,
2459755.500000000, A.D. 2022-Jun-25 00:00:00.0000, 3.918185012999536E+08, -1.582046155268195E+08, -5.348281387187417E+07,
2459762.500000000, A.D. 2022-Jul-02 00:00:00.0000, 3.948970347150368E+08, -1.476668173830132E+08, -5.228814166162136E+07,
2459769.500000000, A.D. 2022-Jul-09 00:00:00.0000, 3.977258182050496E+08, -1.370354505951097E+08, -5.106032855900040E+07,
2459776.500000000, A.D. 2022-Jul-16 00:00:00.0000, 4.003011496929206E+08, -1.263165892615290E+08, -4.979990626351852E+07,
2459783.500000000, A.D. 2022-Jul-23 00:00:00.0000, 4.026194754994087E+08, -1.155164681704037E+08, -4.850744078331532E+07,
2459790.500000000, A.D. 2022-Jul-30 00:00:00.0000, 4.046773964406941E+08, -1.046414799038156E+08, -4.718353251317208E+07,
2459797.500000000, A.D. 2022-Aug-06 00:00:00.0000, 4.064716759079407E+08, -9.369817301695767E+07, -4.582881655579717E+07,
2459804.500000000, A.D. 2022-Aug-13 00:00:00.0000, 4.079992490775768E+08, -8.269324852365796E+07, -4.444396298121310E+07,
2459811.500000000, A.D. 2022-Aug-20 00:00:00.0000, 4.092572316550133E+08, -7.163355518021376E+07, -4.302967691722427E+07,
2459818.500000000, A.D. 2022-Aug-27 00:00:00.0000, 4.102429281903570E+08, -6.052608428514473E+07, -4.158669853253872E+07,
2459825.500000000, A.D. 2022-Sep-03 00:00:00.0000, 4.109538401826195E+08, -4.937796409862640E+07, -4.011580294039009E+07,
2459832.500000000, A.D. 2022-Sep-10 00:00:00.0000, 4.113876740294764E+08, -3.819645385315879E+07, -3.861780002520169E+07,
2459839.500000000, A.D. 2022-Sep-17 00:00:00.0000, 4.115423488175581E+08, -2.698893735503489E+07, -3.709353419160996E+07,
2459846.500000000, A.D. 2022-Sep-24 00:00:00.0000, 4.114160039780810E+08, -1.576291622788897E+07, -3.554388404237345E+07,
2459853.500000000, A.D. 2022-Oct-01 00:00:00.0000, 4.110070070106076E+08, -4.526002823841622E+06, -3.396976200627970E+07,
2459860.500000000, A.D. 2022-Oct-08 00:00:00.0000, 4.103139616428596E+08, 6.714087714773832E+06, -3.237211390844548E+07,
2459867.500000000, A.D. 2022-Oct-15 00:00:00.0000, 4.093357154566525E+08, 1.794954743680768E+07, -3.075191829784114E+07,
2459874.500000000, A.D. 2022-Oct-22 00:00:00.0000, 4.080713647657384E+08, 2.917248591314235E+07, -2.911018546894423E+07,
2459881.500000000, A.D. 2022-Oct-29 00:00:00.0000, 4.065202592096033E+08, 4.037493830665238E+07, -2.744795661866557E+07,
2459888.500000000, A.D. 2022-Nov-05 00:00:00.0000, 4.046820081246302E+08, 5.154887390322229E+07, -2.576630310719806E+07,
2459895.500000000, A.D. 2022-Nov-12 00:00:00.0000, 4.025564866915736E+08, 6.268620635004275E+07, -2.406632553944115E+07,
2459902.500000000, A.D. 2022-Nov-19 00:00:00.0000, 4.001438411058542E+08, 7.377880462229079E+07, -2.234915267993976E+07,
2459909.500000000, A.D. 2022-Nov-26 00:00:00.0000, 3.974444929994704E+08, 8.481850429259232E+07, -2.061594025924601E+07,
2459916.500000000, A.D. 2022-Dec-03 00:00:00.0000, 3.944591432480505E+08, 9.579711906058627E+07, -1.886786968970316E+07,
2459923.500000000, A.D. 2022-Dec-10 00:00:00.0000, 3.911887751776404E+08, 1.067064525275309E+08, -1.710614669561530E+07,
2459930.500000000, A.D. 2022-Dec-17 00:00:00.0000, 3.876346571672519E+08, 1.175383101547873E+08, -1.533199986494770E+07,
2459937.500000000, A.D. 2022-Dec-24 00:00:00.0000, 3.837983447307755E+08, 1.282845113017247E+08, -1.354667914135689E+07,
2459944.500000000, A.D. 2022-Dec-31 00:00:00.0000, 3.796816824129321E+08, 1.389369014088344E+08, -1.175145428455266E+07,
2459951.500000000, A.D. 2023-Jan-07 00:00:00.0000, 3.752868055996161E+08, 1.494873652437658E+08, -9.947613236073904E+06,
2459958.500000000, A.D. 2023-Jan-14 00:00:00.0000, 3.706161402554277E+08, 1.599278416636760E+08, -8.136460174071640E+06,
2459965.500000000, A.D. 2023-Jan-21 00:00:00.0000, 3.656723999335979E+08, 1.702503366781817E+08, -6.319313462365441E+06,
2459972.500000000, A.D. 2023-Jan-28 00:00:00.0000, 3.604585837203703E+08, 1.804469345680517E+08, -4.497503852174178E+06,
2459979.500000000, A.D. 2023-Feb-04 00:00:00.0000, 3.549779748976622E+08, 1.905098100358927E+08, -2.672372676157236E+06,
2459986.500000000, A.D. 2023-Feb-11 00:00:00.0000, 3.492341385249997E+08, 2.004312411444084E+08, -8.452698923266679E+05,
2459993.500000000, A.D. 2023-Feb-18 00:00:00.0000, 3.432309178777326E+08, 2.102036221675200E+08, 9.824479537988007E+05,
2460000.500000000, A.D. 2023-Feb-25 00:00:00.0000, 3.369724300071222E+08, 2.198194761415518E+08, 2.809419804129362E+06,
2460007.500000000, A.D. 2023-Mar-04 00:00:00.0000, 3.304630605310636E+08, 2.292714670869751E+08, 4.634282184590548E+06,
2460014.500000000, A.D. 2023-Mar-11 00:00:00.0000, 3.237074576968023E+08, 2.385524118561702E+08, 6.455671313155606E+06,
2460021.500000000, A.D. 2023-Mar-18 00:00:00.0000, 3.167105257826422E+08, 2.476552915146455E+08, 8.272225203449070E+06,
2460028.500000000, A.D. 2023-Mar-25 00:00:00.0000, 3.094774180680549E+08, 2.565732621658802E+08, 1.008258573396893E+07,
2460035.500000000, A.D. 2023-Apr-01 00:00:00.0000, 3.020135298270386E+08, 2.652996655699468E+08, 1.188540066853566E+07,
2460042.500000000, A.D. 2023-Apr-08 00:00:00.0000, 2.943244907599045E+08, 2.738280407361027E+08, 1.367932577652769E+07,
2460049.500000000, A.D. 2023-Apr-15 00:00:00.0000, 2.864161545552813E+08, 2.821521353424433E+08, 1.546302716915338E+07,
2460056.500000000, A.D. 2023-Apr-22 00:00:00.0000, 2.782945874281022E+08, 2.902659138984742E+08, 1.723518342927364E+07,
2460063.500000000, A.D. 2023-Apr-29 00:00:00.0000, 2.699660584107040E+08, 2.981635648704011E+08, 1.899448746034446E+07,
2460070.500000000, A.D. 2023-May-06 00:00:00.0000, 2.614370296764376E+08, 3.058395085180438E+08, 2.073964835378893E+07,
2460077.500000000, A.D. 2023-May-13 00:00:00.0000, 2.527141459605467E+08, 3.132884045234196E+08, 2.246939328420670E+07,
2460084.500000000, A.D. 2023-May-20 00:00:00.0000, 2.438042233572522E+08, 3.205051588979228E+08, 2.418246936398411E+07,
2460091.500000000, A.D. 2023-May-27 00:00:00.0000, 2.347142377331792E+08, 3.274849301202460E+08, 2.587764543062761E+07,
2460098.500000000, A.D. 2023-Jun-03 00:00:00.0000, 2.254513128624390E+08, 3.342231345162805E+08, 2.755371375752026E+07,
2460105.500000000, A.D. 2023-Jun-10 00:00:00.0000, 2.160227083555067E+08, 3.407154508563280E+08, 2.920949167910732E+07,
2460112.500000000, A.D. 2023-Jun-17 00:00:00.0000, 2.064358075195634E+08, 3.469578241026713E+08, 3.084382311228545E+07,
2460119.500000000, A.D. 2023-Jun-24 00:00:00.0000, 1.966981055191270E+08, 3.529464683607442E+08, 3.245557994468418E+07,
2460126.500000000, A.D. 2023-Jul-01 00:00:00.0000, 1.868171981397799E+08, 3.586778698636866E+08, 3.404366333037081E+07,
2460133.500000000, A.D. 2023-Jul-08 00:00:00.0000, 1.768007695298184E+08, 3.641487908144459E+08, 3.560700510984877E+07,
2460140.500000000, A.D. 2023-Jul-15 00:00:00.0000, 1.666565776861816E+08, 3.693562712604328E+08, 3.714456923702341E+07,
2460147.500000000, A.D. 2023-Jul-22 00:00:00.0000, 1.563924412501269E+08, 3.742976279819280E+08, 3.865535280416319E+07,
$$EOE